Intelsat III F-6
1  4297U 70003A   24310.21991146  .00000053  00000-0  00000+0 0  9992
2  4297   0.4810 259.7248 0009480  75.5277 183.3265  0.99157055171275